0 COSMOS 903 DEB
1 27882U 77027F   17180.27033067 +.00000933 +00000-0 +25244-2 0  9999
2 27882 063.4939 084.4878 7412790 038.6466 355.8732 01.97778221141873
0 COSMOS 903 DEB
1 27882U 77027F   17180.77594663 +.00001186 +00000-0 +49795-2 0  9996
2 27882 063.4939 084.4136 7412909 038.6472 355.8716 01.97779348141951
0 COSMOS 903 DEB
1 27882U 77027F   17181.28155954 +.00001055 +00000-0 +26614-2 0  9999
2 27882 063.4929 084.3399 7413015 038.6484 355.8691 01.97779862141966
0 COSMOS 903 DEB
1 27882U 77027F   17182.29277575 +.00001052 +00000-0 +18838-2 0  9991
2 27882 063.4923 084.1909 7413261 038.6495 355.8631 01.97782013141988
0 COSMOS 903 DEB
1 27882U 77027F   17183.30398051 +.00001112 +00000-0 +25324-2 0  9992
2 27882 063.4918 084.0426 7413498 038.6516 355.8583 01.97784990142007
0 COSMOS 903 DEB
1 27882U 77027F   17183.80957795 +.00001140 +00000-0 +30484-2 0  9997
2 27882 063.4914 083.9683 7413611 038.6522 355.8573 01.97786790141941
0 COSMOS 903 DEB
1 27882U 77027F   17183.80957795 +.00001140 +00000-0 +30484-2 0  9997
2 27882 063.4914 083.9683 7413611 038.6522 355.8573 01.97786790142010
0 COSMOS 903 DEB
1 27882U 77027F   17185.32635745 +.00000820 +00000-0 +16466-3 0  9993
2 27882 063.4916 083.7464 7413960 038.6532 355.8629 01.97791721141971
0 COSMOS 903 DEB
1 27882U 77027F   17185.32635745 +.00000820 +00000-0 +16466-3 0  9993
2 27882 063.4916 083.7464 7413960 038.6532 355.8629 01.97791721142040
0 COSMOS 903 DEB
1 27882U 77027F   17185.83194530 +.00000812 +00000-0 +64897-3 0  9993
2 27882 063.4910 083.6718 7414088 038.6541 355.8679 01.97793733142058
0 COSMOS 903 DEB
1 27882U 77027F   17186.33753378 +.00000566 +00000-0 -17730-2 0  9990
2 27882 063.4915 083.5985 7414208 038.6541 355.8747 01.97794945142065
0 COSMOS 903 DEB
1 27882U 77027F   17186.84311709 +.00000577 +00000-0 -90924-3 0  9993
2 27882 063.4912 083.5240 7414341 038.6548 355.8828 01.97796980142073
0 COSMOS 903 DEB
1 27882U 77027F   17187.85428064 +.00000300 +00000-0 -27082-2 0  9996
2 27882 063.4910 083.3762 7414612 038.6564 355.9032 01.97799913142096
0 COSMOS 903 DEB
1 27882U 77027F   17188.86543347 +.00000274 +00000-0 -12137-2 0  9995
2 27882 063.4911 083.2285 7414869 038.6583 355.9275 01.97803165142118
0 COSMOS 903 DEB
1 27882U 77027F   17189.87657472 +.00000182 +00000-0 -42837-3 0  9991
2 27882 063.4909 083.0807 7415121 038.6600 355.9541 01.97805999142130
0 COSMOS 903 DEB
1 27882U 77027F   17190.88770165 +.00000078 +00000-0 +27404-3 0  9995
2 27882 063.4904 082.9329 7415366 038.6628 355.9783 01.97808451142159
0 COSMOS 903 DEB
1 27882U 77027F   17200.49293653 -.00000903 +00000-0 +33473-2 0  9996
2 27882 063.4891 081.5450 7417848 038.6929 356.1207 01.97814517042338
0 COSMOS 903 DEB
1 27882U 77027F   17201.50385188 -.00000938 +00000-0 +34055-2 0  9999
2 27882 063.4800 081.3799 7417888 038.6993 356.0176 01.97813628142367
0 COSMOS 903 DEB
1 27882U 77027F   17202.00939759 -.00000906 +00000-0 +38845-2 0  9990
2 27882 063.4795 081.3050 7418017 038.7013 356.0282 01.97813270142304
0 COSMOS 903 DEB
1 27882U 77027F   17202.51494585 -.00000936 +00000-0 +35738-2 0  9990
2 27882 063.4790 081.2307 7418147 038.7035 356.0397 01.97812775142385
0 COSMOS 903 DEB
1 27882U 77027F   17205.04269577 -.00000861 +00000-0 +36634-2 0  9995
2 27882 063.4752 080.8596 7418842 038.7146 356.0888 01.97809801142430
0 COSMOS 903 DEB
1 27882U 77027F   17206.05379149 -.00000928 +00000-0 +22021-2 0  9993
2 27882 063.4743 080.7115 7419127 038.7174 356.0967 01.97807934142459
0 COSMOS 903 DEB
1 27882U 77027F   17208.07598157 -.00000940 +00000-0 -18372-3 0  9999
2 27882 063.4712 080.4133 7419679 038.7251 356.0895 01.97803499142496
0 COSMOS 903 DEB
1 27882U 77027F   17209.08708851 -.00000788 +00000-0 -12456-3 0  9992
2 27882 063.4689 080.2629 7419979 038.7284 356.0796 01.97800740142515
0 COSMOS 903 DEB
1 27882U 77027F   17210.09820754 -.00000592 +00000-0 +16498-4 0  9995
2 27882 063.4683 080.1146 7420267 038.7298 356.0702 01.97798639142531
0 COSMOS 903 DEB
1 27882U 77027F   17211.10934128 -.00000333 +00000-0 +45332-3 0  9990
2 27882 063.4644 079.9611 7420388 038.7406 356.0625 01.97796567142550
0 COSMOS 903 DEB
1 27882U 77027F   17212.12049690 -.00000229 +00000-0 -11143-2 0  9991
2 27882 063.4649 079.8127 7420737 038.7417 356.0620 01.97794115142570
0 COSMOS 903 DEB
1 27882U 77027F   17215.15405805 +.00000773 +00000-0 +13914-2 0  9991
2 27882 063.4622 079.3657 7421668 038.7400 356.0967 01.97792235142632
0 COSMOS 903 DEB
1 27882U 77027F   17215.65965478 +.00001007 +00000-0 +27281-2 0  9996
2 27882 063.4617 079.2913 7421784 038.7413 356.1062 01.97793103142578
0 COSMOS 903 DEB
1 27882U 77027F   17216.67085389 +.00001212 +00000-0 +29212-2 0  9997
2 27882 063.4610 079.1417 7422051 038.7426 356.1264 01.97793894142662
0 COSMOS 903 DEB
1 27882U 77027F   17218.69321120 +.00001441 +00000-0 +32572-2 0  9994
2 27882 063.4605 078.8430 7422602 038.7459 356.1622 01.97798018142701
0 COSMOS 903 DEB
1 27882U 77027F   17219.19877814 +.00001729 +00000-0 +62142-2 0  9991
2 27882 063.4559 078.7628 7422565 038.7600 356.1665 01.97801180142716
0 COSMOS 903 DEB
1 27882U 77027F   17220.20992286 +.00001451 +00000-0 +36503-2 0  9990
2 27882 063.4487 078.6087 7422324 038.7645 356.1718 01.97802800142669
0 COSMOS 903 DEB
1 27882U 77027F   17220.20992307 +.00001749 +00000-0 +67877-2 0  9992
2 27882 063.4487 078.6142 7422496 038.7625 356.1724 01.97803510142733
0 COSMOS 903 DEB
1 27882U 77027F   17220.20992363 +.00001660 +00000-0 +58497-2 0  9994
2 27882 063.4493 078.6118 7422492 038.7623 356.1724 01.97803238142666
0 COSMOS 903 DEB
1 27882U 77027F   17221.22103018 +.00001717 +00000-0 +74010-2 0  9990
2 27882 063.4477 078.4621 7422576 038.7670 356.1708 01.97806932142756
0 COSMOS 903 DEB
1 27882U 77027F   17223.24316950 +.00000556 +00000-0 -14690-2 0  9994
2 27882 063.4478 078.1601 7422967 038.7767 356.1471 01.97811514142796
0 COSMOS 903 DEB
1 27882U 77027F   17223.74868391  .00001422  00000-0  85725-2 0  9999
2 27882  63.4464  78.0875 7423056  38.7771 356.1387  1.97815764142807
0 COSMOS 903 DEB
1 27882U 77027F   17224.25420404 +.00001071 +00000-0 +59576-2 0  9990
2 27882 063.4463 078.0131 7423202 038.7788 356.1302 01.97816130142740
0 COSMOS 903 DEB
1 27882U 77027F   17224.75971628  .00000858  00000-0  48012-2 0  9999
2 27882  63.4479  77.9356 7423295  38.7832 356.1217  1.97817481142820
0 COSMOS 903 DEB
1 27882U 77027F   17225.26523099 +.00000596 +00000-0 +31341-2 0  9997
2 27882 063.4477 077.8618 7423435 038.7845 356.1145 01.97818088142765
0 COSMOS 903 DEB
1 27882U 77027F   17225.77073893 +.00000757 +00000-0 +58217-2 0  9995
2 27882 063.4473 077.7867 7423534 038.7871 356.1085 01.97820169142840
0 COSMOS 903 DEB
1 27882U 77027F   17226.78176184  .00000260  00000-0  26296-2 0  9995
2 27882  63.4459  77.6364 7423689  38.7940 356.1018  1.97821441142865
0 COSMOS 903 DEB
1 27882U 77027F   17227.79278076  .00000731  00000-0  90910-2 0  9997
2 27882  63.4447  77.4904 7423971  38.7965 356.1046  1.97824949142880
0 COSMOS 903 DEB
1 27882U 77027F   17228.29829696 -.00000132  00000-0  10178-2 0  9997
2 27882  63.4453  77.4135 7424042  38.8019 356.1083  1.97823665142890
0 COSMOS 903 DEB
1 27882U 77027F   17229.81482922  .00000776  00000-0  12027-1 0  9990
2 27882  63.4439  77.1918 7424467  38.8063 356.1290  1.97828137142923
0 COSMOS 903 DEB
1 27882U 77027F   17230.82584933 -.00000342  00000-0  17600-2 0  9991
2 27882  63.4445  77.0407 7424592  38.8147 356.1424  1.97826306142941
0 COSMOS 903 DEB
1 27882U 77027F   17231.83685848  .00000218  00000-0  83371-2 0  9999
2 27882  63.4421  76.8915 7424815  38.8206 356.1516  1.97828258142962
0 COSMOS 903 DEB
1 27882U 77027F   17232.34235770 -.00000190 +00000-0 +47449-2 0  9997
2 27882 063.4409 076.8166 7424781 038.8255 356.1528 01.97827245142904
0 COSMOS 903 DEB
1 27882U 77027F   17232.84785030  .00000153  00000-0  86598-2 0  9997
2 27882  63.4410  76.7427 7424953  38.8276 356.1527  1.97828681142981
0 COSMOS 903 DEB
1 27882U 77027F   17233.85883427 -.00000394 +00000-0 +42698-2 0  9999
2 27882 063.4340 076.5911 7424873 038.8370 356.1442 01.97827244143009
0 COSMOS 903 DEB
1 27882U 77027F   17234.36432689 -.00000336 +00000-0 +53548-2 0  9998
2 27882 063.4381 076.5190 7425265 038.8354 356.1389 01.97827113142948
0 COSMOS 903 DEB
1 27882U 77027F   17234.36432689 -.00000336 +00000-0 +53548-2 0  9998
2 27882 063.4381 076.5190 7425265 038.8354 356.1389 01.97827113143017
0 COSMOS 903 DEB
1 27882U 77027F   17239.92472501 -.00001535  00000-0 -32298-2 0  9994
2 27882  63.4148  75.6871 7425687  38.8819 356.0547  1.97822675143123
0 COSMOS 903 DEB
1 27882U 77027F   17241.44126896 -.00001070  00000-0  21135-3 0  9999
2 27882  63.4139  75.4568 7426096  38.8939 356.0582  1.97818997143156
0 COSMOS 903 DEB
1 27882U 77027F   17241.44126896 -.00001070 +00000-0 +21135-3 0  9999
2 27882 063.4139 075.4568 7426096 038.8939 356.0582 01.97818997143088
0 COSMOS 903 DEB
1 27882U 77027F   17242.95783391  .00000451  00000-0  12804-1 0  9997
2 27882  63.4090  75.2393 7426610  38.8988 356.0729  1.97820670143189
0 COSMOS 903 DEB
1 27882U 77027F   17244.97999006 -.00000404  00000-0  40741-3 0  9995
2 27882  63.4003  74.9235 7426720  38.9143 356.0923  1.97811264143220
0 COSMOS 903 DEB
1 27882U 77027F   17246.49662736  .00001598  00000-0  16191-1 0  9995
2 27882  63.3844  74.6899 7426580  38.9353 356.0962  1.97809377143250
0 COSMOS 903 DEB
1 27882U 77027F   17247.00217471  .00000546  00000-0  47009-2 0  9990
2 27882  63.3906  74.6203 7426954  38.9272 356.0972  1.97807110143268
0 COSMOS 903 DEB
1 27882U 77027F   17248.01326060  .00001454  00000-0  11099-1 0  9995
2 27882  63.3766  74.4588 7426577  38.9468 356.0865  1.97806525143286
0 COSMOS 903 DEB
1 27882U 77027F   17249.02435179  .00000979  00000-0  41264-2 0  9998
2 27882  63.3845  74.3199 7427180  38.9330 356.0748  1.97804734143303
0 COSMOS 903 DEB
1 27882U 77027F   17250.03542868  .00001017  00000-0  24698-2 0  9991
2 27882  63.3748  74.1521 7426972  38.9537 356.0508  1.97804206143329
